{
  "type": "FeatureCollection",
  "features": [
    {
      "type": "Feature",
      "properties": {
        "norad_id": 43719,
        "name": "HYSIS",
        "group": "resource",
        "lat": -65.76721770989923,
        "lon": -158.46482803018537,
        "alt_km": 642.2322797417419,
        "timestamp": "2025-12-02T17:49:11.683358+00:00",
        "meta_object_name": "HYSIS",
        "meta_object_id": "2018-096A",
        "meta_epoch": "2025-12-02T02:05:19.807584",
        "meta_mean_motion": 14.78593325,
        "meta_eccentricity": 0.00017552,
        "meta_inclination": 98.0111,
        "meta_ra_of_asc_node": 39.1163,
        "meta_arg_of_pericenter": 68.8994,
        "meta_mean_anomaly": 291.2404,
        "meta_ephemeris_type": 0,
        "meta_classification_type": "U",
        "meta_norad_cat_id": 43719,
        "meta_element_set_no": 999,
        "meta_rev_at_epoch": 37829,
        "meta_bstar": 2.1475355e-05,
        "meta_mean_motion_dot": 1.05e-06,
        "meta_mean_motion_ddot": 0,
        "tle_line1": "1 43719U 18096A   25336.08703481  .00000105  00000+0  21475-4 0  9996",
        "tle_line2": "2 43719  98.0111  39.1163 0001755  68.8994 291.2404 14.78593325378299"
      },
      "geometry": {
        "type": "Point",
        "coordinates": [
          -158.46482803018537,
          -65.76721770989923
        ]
      }
    },
    {
      "type": "Feature",
      "properties": {
        "norad_id": 43783,
        "name": "KAZSTSAT",
        "group": "resource",
        "lat": 77.78853110529808,
        "lon": -130.40893482768172,
        "alt_km": 562.0488086262076,
        "timestamp": "2025-12-02T17:49:11.683369+00:00",
        "meta_object_name": "KAZSTSAT",
        "meta_object_id": "2018-099AB",
        "meta_epoch": "2025-12-02T01:21:35.196768",
        "meta_mean_motion": 14.99291992,
        "meta_eccentricity": 0.00066196,
        "meta_inclination": 97.4552,
        "meta_ra_of_asc_node": 11.7011,
        "meta_arg_of_pericenter": 8.824,
        "meta_mean_anomaly": 351.3099,
        "meta_ephemeris_type": 0,
        "meta_classification_type": "U",
        "meta_norad_cat_id": 43783,
        "meta_element_set_no": 999,
        "meta_rev_at_epoch": 38176,
        "meta_bstar": 0.00020697251,
        "meta_mean_motion_dot": 2.472e-05,
        "meta_mean_motion_ddot": 0,
        "tle_line1": "1 43783U 18099AB  25336.05665737  .00002472  00000+0  20697-3 0  9991",
        "tle_line2": "2 43783  97.4552  11.7011 0006619   8.8240 351.3099 14.99291992381764"
      },
      "geometry": {
        "type": "Point",
        "coordinates": [
          -130.40893482768172,
          77.78853110529808
        ]
      }
    },
    {
      "type": "Feature",
      "properties": {
        "norad_id": 43831,
        "name": "SAUDISAT 5A",
        "group": "resource",
        "lat": -69.10321903981067,
        "lon": 56.85278077289939,
        "alt_km": 504.7914784374625,
        "timestamp": "2025-12-02T17:49:11.683379+00:00",
        "meta_object_name": "SAUDISAT 5A",
        "meta_object_id": "2018-102A",
        "meta_epoch": "2025-12-02T11:49:52.762656",
        "meta_mean_motion": 15.2545428,
        "meta_eccentricity": 0.0011783,
        "meta_inclination": 97.3376,
        "meta_ra_of_asc_node": 36.8829,
        "meta_arg_of_pericenter": 107.7006,
        "meta_mean_anomaly": 252.5519,
        "meta_ephemeris_type": 0,
        "meta_classification_type": "U",
        "meta_norad_cat_id": 43831,
        "meta_element_set_no": 999,
        "meta_rev_at_epoch": 38566,
        "meta_bstar": 0.00031533,
        "meta_mean_motion_dot": 7.922e-05,
        "meta_mean_motion_ddot": 0,
        "tle_line1": "1 43831U 18102A   25336.49297179  .00007922  00000+0  31533-3 0  9995",
        "tle_line2": "2 43831  97.3376  36.8829 0011783 107.7006 252.5519 15.25454280385666"
      },
      "geometry": {
        "type": "Point",
        "coordinates": [
          56.85278077289939,
          -69.10321903981067
        ]
      }
    },
    {
      "type": "Feature",
      "properties": {
        "norad_id": 43833,
        "name": "SAUDISAT 5B",
        "group": "resource",
        "lat": -30.775398942239352,
        "lon": 44.25525946944698,
        "alt_km": 501.0028712279436,
        "timestamp": "2025-12-02T17:49:11.683389+00:00",
        "meta_object_name": "SAUDISAT 5B",
        "meta_object_id": "2018-102C",
        "meta_epoch": "2025-12-02T11:39:36.609696",
        "meta_mean_motion": 15.25811924,
        "meta_eccentricity": 0.0012442,
        "meta_inclination": 97.347,
        "meta_ra_of_asc_node": 39.5961,
        "meta_arg_of_pericenter": 110.3146,
        "meta_mean_anomaly": 249.9431,
        "meta_ephemeris_type": 0,
        "meta_classification_type": "U",
        "meta_norad_cat_id": 43833,
        "meta_element_set_no": 999,
        "meta_rev_at_epoch": 38577,
        "meta_bstar": 0.00030323,
        "meta_mean_motion_dot": 7.699e-05,
        "meta_mean_motion_ddot": 0,
        "tle_line1": "1 43833U 18102C   25336.48584039  .00007699  00000+0  30323-3 0  9997",
        "tle_line2": "2 43833  97.3470  39.5961 0012442 110.3146 249.9431 15.25811924385775"
      },
      "geometry": {
        "type": "Point",
        "coordinates": [
          44.25525946944698,
          -30.775398942239352
        ]
      }
    },
    {
      "type": "Feature",
      "properties": {
        "norad_id": 44622,
        "name": "GAOFEN-10R",
        "group": "resource",
        "lat": 22.149633872059546,
        "lon": -79.08178749826374,
        "alt_km": 616.460934950228,
        "timestamp": "2025-12-02T17:49:11.683399+00:00",
        "meta_object_name": "GAOFEN-10R",
        "meta_object_id": "2019-066A",
        "meta_epoch": "2025-12-02T12:51:37.870272",
        "meta_mean_motion": 14.82732569,
        "meta_eccentricity": 0.0008298,
        "meta_inclination": 98.0259,
        "meta_ra_of_asc_node": 284.0035,
        "meta_arg_of_pericenter": 69.6447,
        "meta_mean_anomaly": 290.5656,
        "meta_ephemeris_type": 0,
        "meta_classification_type": "U",
        "meta_norad_cat_id": 44622,
        "meta_element_set_no": 999,
        "meta_rev_at_epoch": 33323,
        "meta_bstar": 0.00030987,
        "meta_mean_motion_dot": 2.449e-05,
        "meta_mean_motion_ddot": 0,
        "tle_line1": "1 44622U 19066A   25336.53585498  .00002449  00000+0  30987-3 0  9994",
        "tle_line2": "2 44622  98.0259 284.0035 0008298  69.6447 290.5656 14.82732569333232"
      },
      "geometry": {
        "type": "Point",
        "coordinates": [
          -79.08178749826374,
          22.149633872059546
        ]
      }
    },
    {
      "type": "Feature",
      "properties": {
        "norad_id": 44804,
        "name": "CARTOSAT-3",
        "group": "resource",
        "lat": -45.789085739314174,
        "lon": 44.19274722780463,
        "alt_km": 524.1099790746784,
        "timestamp": "2025-12-02T17:49:11.683421+00:00",
        "meta_object_name": "CARTOSAT-3",
        "meta_object_id": "2019-081A",
        "meta_epoch": "2025-11-28T19:10:32.696256",
        "meta_mean_motion": 15.19179285,
        "meta_eccentricity": 0.00136919,
        "meta_inclination": 97.4604,
        "meta_ra_of_asc_node": 32.557,
        "meta_arg_of_pericenter": 130.907,
        "meta_mean_anomaly": 229.3352,
        "meta_ephemeris_type": 0,
        "meta_classification_type": "U",
        "meta_norad_cat_id": 44804,
        "meta_element_set_no": 999,
        "meta_rev_at_epoch": 33304,
        "meta_bstar": 0.00011293309,
        "meta_mean_motion_dot": 2.312e-05,
        "meta_mean_motion_ddot": 0,
        "tle_line1": "1 44804U 19081A   25332.79898954  .00002312  00000+0  11293-3 0  9999",
        "tle_line2": "2 44804  97.4604  32.5570 0013691 130.9070 229.3352 15.19179285333041"
      },
      "geometry": {
        "type": "Point",
        "coordinates": [
          44.19274722780463,
          -45.789085739314174
        ]
      }
    },
    {
      "type": "Feature",
      "properties": {
        "norad_id": 44819,
        "name": "GAOFEN-12 01",
        "group": "resource",
        "lat": 5.6643525339016305,
        "lon": -17.494429187387514,
        "alt_km": 629.1551505019961,
        "timestamp": "2025-12-02T17:49:11.683432+00:00",
        "meta_object_name": "GAOFEN-12 01",
        "meta_object_id": "2019-082A",
        "meta_epoch": "2025-12-02T12:55:42.328704",
        "meta_mean_motion": 14.80637862,
        "meta_eccentricity": 0.0001298,
        "meta_inclination": 97.8128,
        "meta_ra_of_asc_node": 343.0874,
        "meta_arg_of_pericenter": 303.3745,
        "meta_mean_anomaly": 56.7344,
        "meta_ephemeris_type": 0,
        "meta_classification_type": "U",
        "meta_norad_cat_id": 44819,
        "meta_element_set_no": 999,
        "meta_rev_at_epoch": 32499,
        "meta_bstar": 0.00010273,
        "meta_mean_motion_dot": 7.38e-06,
        "meta_mean_motion_ddot": 0,
        "tle_line1": "1 44819U 19082A   25336.53868436  .00000738  00000+0  10273-3 0  9991",
        "tle_line2": "2 44819  97.8128 343.0874 0001298 303.3745  56.7344 14.80637862324998"
      },
      "geometry": {
        "type": "Point",
        "coordinates": [
          -17.494429187387514,
          5.6643525339016305
        ]
      }
    }
  ]
}